COSMOS 2425 (716)       
1 29670U 06062A   18217.43944957  .00000002  00000-0  10000-3 0  9998
2 29670  65.2558 290.8734 0020000 343.1714  73.9168  2.13105038 90360
COSMOS 2426 (717)       
1 29671U 06062B   18216.70633498 -.00000001  00000-0  10000-3 0  9993
2 29671  65.2725 290.9969 0019180 168.0741 261.9741  2.13102970 90356
COSMOS 2433 (720)       
1 32275U 07052A   18217.34610726  .00000001  00000-0  10000-3 0  9996
2 32275  65.7118  51.7125 0000556 243.9276 292.6921  2.13104486 83875
COSMOS 2432 (719)       
1 32276U 07052B   18217.20442549  .00000000  00000-0  10000-3 0  9997
2 32276  65.7226  51.7955 0010388 344.8046  34.9950  2.13103917 83874
COSMOS 2434 (721)       
1 32393U 07065A   18216.96090586  .00000002  00000-0  00000+0 0  9990
2 32393  64.8704 289.8418 0004211 134.8474 354.2014  2.13103042 82577
COSMOS 2436 (723)       
1 32395U 07065C   18216.86737177  .00000001  00000-0  10000-3 0  9999
2 32395  64.8799 289.8957 0013619 357.9939 110.0405  2.13104407 82508
COSMOS 2456 (730)       
1 36111U 09070A   18216.73613356  .00000058  00000-0  00000-0 0  9993
2 36111  64.1891 169.4404 0006253 302.9538 186.0393  2.13103017 67233
COSMOS 2457 (733)       
1 36112U 09070B   18217.25508622  .00000053  00000-0  00000+0 0  9995
2 36112  64.1715 169.3335 0005590 191.4955 102.2541  2.13101612 67243
COSMOS 2458 (734)       
1 36113U 09070C   18217.04285534  .00000055  00000-0  10000-3 0  9994
2 36113  64.1764 169.3526 0002738 322.8869 214.9308  2.13096693 67249
COSMOS 2459 (731)       
1 36400U 10007A   18216.86698083 -.00000002  00000-0  10000-3 0  9994
2 36400  65.6198  50.7836 0026572 356.3637  31.2420  2.13102203 65595
COSMOS 2461 (735)       
1 36401U 10007B   18217.44935112  .00000001  00000-0  10000-3 0  9995
2 36401  65.6126  50.7387 0008820  70.6520 314.3207  2.13102227 65607
COSMOS 2460 (732)       
1 36402U 10007C   18216.45593178 -.00000004  00000-0  10000-3 0  9992
2 36402  65.6030  50.7398 0002210  80.4350 302.9365  2.13101615 65586
COSMOS 2464 (736)       
1 37139U 10041C   18216.83882304  .00000001  00000-0  00000-0 0  9994
2 37139  64.4726 289.6263 0022116  11.6307 251.5641  2.13102751 61654
COSMOS 2471 (701K)      
1 37372U 11009A   18216.65109190 -.00000003  00000-0  00000-0 0  9996
2 37372  65.5997  50.6784 0007005 225.2082  92.8764  2.13107544 57856
COSMOS 2474 (742)       
1 37829U 11055A   18217.11156986  .00000057  00000-0  00000+0 0  9998
2 37829  64.5123 170.1673 0010568 253.2009  21.7334  2.13101927 53237
COSMOS 2476 (744)       
1 37867U 11064A   18217.04892880  .00000057  00000-0  00000+0 0  9992
2 37867  64.4927 170.2307 0020245 244.9091  28.0245  2.13101942 52581
COSMOS 2477 (745)       
1 37868U 11064B   18216.66214984  .00000060  00000-0  00000+0 0  9997
2 37868  64.5004 170.2918 0018043 246.6110 268.4653  2.13101813 52536
COSMOS 2475 (743)       
1 37869U 11064C   18217.15997432  .00000056  00000-0  00000+0 0  9994
2 37869  64.5079 170.2701 0022683 268.3262 225.4320  2.13102180 52557
COSMOS 2485 (747)       
1 39155U 13019A   18217.25187814  .00000056  00000-0  00000+0 0  9992
2 39155  64.6616 170.3435 0020540 240.2859 233.2061  2.13102045 41064
COSMOS 2492 (754)       
1 39620U 14012A   18216.83606777 -.00000002  00000-0  10000-3 0  9997
2 39620  65.4915  50.6053 0013543 337.2130 212.1110  2.13103346 34004
COSMOS 2500 (755)       
1 40001U 14032A   18217.43648215  .00000000  00000-0  00000+0 0  9996
2 40001  65.4338  50.5511 0005117 186.1681 325.9435  2.13102726 32233
COSMOS 2501 (702K)      
1 40315U 14075A   18216.49946596 -.00000003  00000-0  00000+0 0  9993
2 40315  64.1978 290.8333 0016888 206.6906 107.6865  2.13098699 28615
COSMOS 2514 (751)       
1 41330U 16008A   18217.48334207 -.00000000  00000-0  00000+0 0  9996
2 41330  65.2350  50.5903 0008098 204.9790 164.0751  2.13103278 19407
COSMOS 2516 (753)       
1 41554U 16032A   18217.27901619  .00000001  00000-0  00000+0 0  9995
2 41554  64.4171 290.6847 0013818 216.0769 247.2247  2.13101745 17002
COSMOS 2522 (752)       
1 42939U 17055A   18217.18270047  .00000001  00000-0  00000+0 0  9993
2 42939  64.6490 290.6693 0008540 238.8285  17.0079  2.13101906  6751
